STARLINK-30600          
1 58100U 23161D   26068.57561683 -.00000026  00000+0  11243-4 0  9993
2 58100  53.1609 166.0889 0001272 107.9519 252.1621 15.30187522134407
JINJUSAT-1B             
1 63210U 25052A   26068.66363707  .00019955  00000+0  68430-3 0  9998
2 63210  97.4113 325.4613 0005550  82.1930 277.9941 15.30194857 54866
